{
  "type": "FeatureCollection",
  "features": [
    {
      "type": "Feature",
      "properties": {
        "norad_id": 51444,
        "name": "CSG-2",
        "group": "resource",
        "lat": -47.851773305896195,
        "lon": -28.46151803888688,
        "alt_km": 630.1924232769643,
        "timestamp": "2025-12-04T21:36:15.532181+00:00",
        "meta_object_name": "CSG-2",
        "meta_object_id": "2022-008A",
        "meta_epoch": "2025-12-04T14:05:46.032576",
        "meta_mean_motion": 14.82151323,
        "meta_eccentricity": 0.00014992,
        "meta_inclination": 97.8807,
        "meta_ra_of_asc_node": 160.0333,
        "meta_arg_of_pericenter": 89.2785,
        "meta_mean_anomaly": 270.86,
        "meta_ephemeris_type": 0,
        "meta_classification_type": "U",
        "meta_norad_cat_id": 51444,
        "meta_element_set_no": 999,
        "meta_rev_at_epoch": 20776,
        "meta_bstar": 0.00014089467,
        "meta_mean_motion_dot": 1.07e-05,
        "meta_mean_motion_ddot": 0,
        "tle_line1": "1 51444U 22008A   25338.58733834  .00001070  00000+0  14089-3 0  9994",
        "tle_line2": "2 51444  97.8807 160.0333 0001499  89.2785 270.8600 14.82151323207762"
      },
      "geometry": {
        "type": "Point",
        "coordinates": [
          -28.46151803888688,
          -47.851773305896195
        ]
      }
    },
    {
      "type": "Feature",
      "properties": {
        "norad_id": 52912,
        "name": "GAOFEN-12 03",
        "group": "resource",
        "lat": -36.85281935953073,
        "lon": 40.49526703147038,
        "alt_km": 638.3187505685482,
        "timestamp": "2025-12-04T21:36:15.532191+00:00",
        "meta_object_name": "GAOFEN-12 03",
        "meta_object_id": "2022-069A",
        "meta_epoch": "2025-12-04T15:45:24.369120",
        "meta_mean_motion": 14.79578822,
        "meta_eccentricity": 0.00023112,
        "meta_inclination": 97.8489,
        "meta_ra_of_asc_node": 226.192,
        "meta_arg_of_pericenter": 75.3839,
        "meta_mean_anomaly": 284.7629,
        "meta_ephemeris_type": 0,
        "meta_classification_type": "U",
        "meta_norad_cat_id": 52912,
        "meta_element_set_no": 999,
        "meta_rev_at_epoch": 18584,
        "meta_bstar": 0.00034666446,
        "meta_mean_motion_dot": 2.546e-05,
        "meta_mean_motion_ddot": 0,
        "tle_line1": "1 52912U 22069A   25338.65653205  .00002546  00000+0  34666-3 0  9995",
        "tle_line2": "2 52912  97.8489 226.1920 0002311  75.3839 284.7629 14.79578822185847"
      },
      "geometry": {
        "type": "Point",
        "coordinates": [
          40.49526703147038,
          -36.85281935953073
        ]
      }
    },
    {
      "type": "Feature",
      "properties": {
        "norad_id": 54754,
        "name": "SWOT",
        "group": "resource",
        "lat": -77.40177971000935,
        "lon": -162.8293117034643,
        "alt_km": 900.5270886582011,
        "timestamp": "2025-12-04T21:36:15.532202+00:00",
        "meta_object_name": "SWOT",
        "meta_object_id": "2022-173A",
        "meta_epoch": "2025-12-04T15:11:05.254944",
        "meta_mean_motion": 14.00172854,
        "meta_eccentricity": 3.31e-05,
        "meta_inclination": 77.6099,
        "meta_ra_of_asc_node": 297.9341,
        "meta_arg_of_pericenter": 136.9628,
        "meta_mean_anomaly": 223.1549,
        "meta_ephemeris_type": 0,
        "meta_classification_type": "U",
        "meta_norad_cat_id": 54754,
        "meta_element_set_no": 999,
        "meta_rev_at_epoch": 15192,
        "meta_bstar": 0.00010700502,
        "meta_mean_motion_dot": 1.55e-06,
        "meta_mean_motion_ddot": 0,
        "tle_line1": "1 54754U 22173A   25338.63269971  .00000155  00000+0  10701-3 0  9996",
        "tle_line2": "2 54754  77.6099 297.9341 0000331 136.9628 223.1549 14.00172854151928"
      },
      "geometry": {
        "type": "Point",
        "coordinates": [
          -162.8293117034643,
          -77.40177971000935
        ]
      }
    },
    {
      "type": "Feature",
      "properties": {
        "norad_id": 57654,
        "name": "GAOFEN-12 04",
        "group": "resource",
        "lat": 23.86269107804906,
        "lon": -108.75054920488306,
        "alt_km": 629.180973036332,
        "timestamp": "2025-12-04T21:36:15.532212+00:00",
        "meta_object_name": "GAOFEN-12 04",
        "meta_object_id": "2023-123A",
        "meta_epoch": "2025-12-04T15:00:13.692672",
        "meta_mean_motion": 14.79661945,
        "meta_eccentricity": 0.00014612,
        "meta_inclination": 97.9119,
        "meta_ra_of_asc_node": 254.5056,
        "meta_arg_of_pericenter": 73.0795,
        "meta_mean_anomaly": 287.0576,
        "meta_ephemeris_type": 0,
        "meta_classification_type": "U",
        "meta_norad_cat_id": 57654,
        "meta_element_set_no": 999,
        "meta_rev_at_epoch": 12385,
        "meta_bstar": 0.00042859361,
        "meta_mean_motion_dot": 3.165e-05,
        "meta_mean_motion_ddot": 0,
        "tle_line1": "1 57654U 23123A   25338.62515848  .00003165  00000+0  42859-3 0  9993",
        "tle_line2": "2 57654  97.9119 254.5056 0001461  73.0795 287.0576 14.79661945123851"
      },
      "geometry": {
        "type": "Point",
        "coordinates": [
          -108.75054920488306,
          23.86269107804906
        ]
      }
    },
    {
      "type": "Feature",
      "properties": {
        "norad_id": 59065,
        "name": "PARS 1",
        "group": "resource",
        "lat": 41.780736216434136,
        "lon": 136.3946810396562,
        "alt_km": 434.29343532807707,
        "timestamp": "2025-12-04T21:36:15.532222+00:00",
        "meta_object_name": "PARS 1",
        "meta_object_id": "2024-039Q",
        "meta_epoch": "2025-12-04T14:46:29.138592",
        "meta_mean_motion": 15.4070141,
        "meta_eccentricity": 0.00127168,
        "meta_inclination": 97.4621,
        "meta_ra_of_asc_node": 309.3787,
        "meta_arg_of_pericenter": 96.293,
        "meta_mean_anomaly": 263.9765,
        "meta_ephemeris_type": 0,
        "meta_classification_type": "U",
        "meta_norad_cat_id": 59065,
        "meta_element_set_no": 999,
        "meta_rev_at_epoch": 9863,
        "meta_bstar": 0.00053867986,
        "meta_mean_motion_dot": 0.00022004,
        "meta_mean_motion_ddot": 0,
        "tle_line1": "1 59065U 24039Q   25338.61561503  .00022004  00000+0  53868-3 0  9991",
        "tle_line2": "2 59065  97.4621 309.3787 0012716  96.2930 263.9765 15.40701410 98636"
      },
      "geometry": {
        "type": "Point",
        "coordinates": [
          136.3946810396562,
          41.780736216434136
        ]
      }
    },
    {
      "type": "Feature",
      "properties": {
        "norad_id": 59371,
        "name": "RESURS-P 4",
        "group": "resource",
        "lat": 11.846765254103712,
        "lon": 106.92235462299239,
        "alt_km": 471.88209048752196,
        "timestamp": "2025-12-04T21:36:15.532232+00:00",
        "meta_object_name": "RESURS-P 4",
        "meta_object_id": "2024-061A",
        "meta_epoch": "2025-12-04T16:10:15.377376",
        "meta_mean_motion": 15.31987346,
        "meta_eccentricity": 0.00020723,
        "meta_inclination": 97.2535,
        "meta_ra_of_asc_node": 285.1697,
        "meta_arg_of_pericenter": 55.0909,
        "meta_mean_anomaly": 305.0527,
        "meta_ephemeris_type": 0,
        "meta_classification_type": "U",
        "meta_norad_cat_id": 59371,
        "meta_element_set_no": 999,
        "meta_rev_at_epoch": 9397,
        "meta_bstar": 0.00026094504,
        "meta_mean_motion_dot": 7.984e-05,
        "meta_mean_motion_ddot": 0,
        "tle_line1": "1 59371U 24061A   25338.67378909  .00007984  00000+0  26095-3 0  9990",
        "tle_line2": "2 59371  97.2535 285.1697 0002072  55.0909 305.0527 15.31987346 93972"
      },
      "geometry": {
        "type": "Point",
        "coordinates": [
          106.92235462299239,
          11.846765254103712
        ]
      }
    },
    {
      "type": "Feature",
      "properties": {
        "norad_id": 59625,
        "name": "LEGION 1",
        "group": "resource",
        "lat": 65.90521176964218,
        "lon": -109.20554225827293,
        "alt_km": 512.1843754415213,
        "timestamp": "2025-12-04T21:36:15.532242+00:00",
        "meta_object_name": "LEGION 1",
        "meta_object_id": "2024-081A",
        "meta_epoch": "2025-12-04T14:46:23.895840",
        "meta_mean_motion": 15.1635631,
        "meta_eccentricity": 0.0004608,
        "meta_inclination": 97.5231,
        "meta_ra_of_asc_node": 53.3243,
        "meta_arg_of_pericenter": 350.5952,
        "meta_mean_anomaly": 9.5193,
        "meta_ephemeris_type": 0,
        "meta_classification_type": "U",
        "meta_norad_cat_id": 59625,
        "meta_element_set_no": 999,
        "meta_rev_at_epoch": 8804,
        "meta_bstar": 0.00059589708,
        "meta_mean_motion_dot": 0.00011506,
        "meta_mean_motion_ddot": 0,
        "tle_line1": "1 59625U 24081A   25338.61555435  .00011506  00000+0  59590-3 0  9990",
        "tle_line2": "2 59625  97.5231  53.3243 0004608 350.5952   9.5193 15.16356310 88041"
      },
      "geometry": {
        "type": "Point",
        "coordinates": [
          -109.20554225827293,
          65.90521176964218
        ]
      }
    }
  ]
}